CTC1_L_00157001-01
1 10000U 23852E   26075.70031250  .00000000  00000+0  00000-0 0  9998
2 10000 100.0000   0.0000 0000000   0.0000   0.0000 14.06899812    13
CTC1_L_00157001-02
1 10001U 25890KI  26075.70031250  .00000000  00000+0  00000-0 0  9993
2 10001 100.0000   0.0000 0000000   0.0000  90.0000 14.06899812    13
CTC1_L_00157001-03
1 10002U 24397QA  26075.70031250  .00000000  00000+0  00000-0 0  9995
2 10002 100.0000   0.0000 0000000   0.0000 180.0000 14.06899812    14
CTC1_L_00157001-04
1 10003U 26873AX  26075.70031250  .00000000  00000+0  00000-0 0  9997
2 10003 100.0000   0.0000 0000000   0.0000 270.0000 14.06899812    15
CTC1_L_00157002-01
1 10004U 23678TV  26075.70031250  .00000000  00000+0  00000-0 0  9998
2 10004 100.0000  12.0000 0000000   0.0000  12.0000 14.06899812    13
CTC1_L_00157002-02
1 10005U 22324RS  26075.70031250  .00000000  00000+0  00000-0 0  9996
2 10005 100.0000  12.0000 0000000   0.0000 102.0000 14.06899812    14
CTC1_L_00157002-03
1 10006U 23156RP  26075.70031250  .00000000  00000+0  00000-0 0  9991
2 10006 100.0000  12.0000 0000000   0.0000 192.0000 14.06899812    14
CTC1_L_00157002-04
1 10007U 25917AC  26075.70031250  .00000000  00000+0  00000-0 0  9999
2 10007 100.0000  12.0000 0000000   0.0000 282.0000 14.06899812    15
CTC1_L_00157003-01
1 10008U 24711ZE  26075.70031250  .00000000  00000+0  00000-0 0  9991
2 10008 100.0000  24.0000 0000000   0.0000  24.0000 14.06899812    13
CTC1_L_00157003-02
1 10009U 23047BC  26075.70031250  .00000000  00000+0  00000-0 0  9993
2 10009 100.0000  24.0000 0000000   0.0000 114.0000 14.06899812    14
CTC1_L_00157003-03
1 10010U 26997GG  26075.70031250  .00000000  00000+0  00000-0 0  9992
2 10010 100.0000  24.0000 0000000   0.0000 204.0000 14.06899812    16
CTC1_L_00157003-04
1 10011U 23057L   26075.70031250  .00000000  00000+0  00000-0 0  9997
2 10011 100.0000  24.0000 0000000   0.0000 294.0000 14.06899812    16
CTC1_L_00157004-01
1 10012U 26760KL  26075.70031250  .00000000  00000+0  00000-0 0  9992
2 10012 100.0000  36.0000 0000000   0.0000  36.0000 14.06899812    14
CTC1_L_00157004-02
1 10013U 25834ZX  26075.70031250  .00000000  00000+0  00000-0 0  9994
2 10013 100.0000  36.0000 0000000   0.0000 126.0000 14.06899812    15
CTC1_L_00157004-03
1 10014U 25529Q   26075.70031250  .00000000  00000+0  00000-0 0  9996
2 10014 100.0000  36.0000 0000000   0.0000 216.0000 14.06899812    16
CTC1_L_00157004-04
1 10015U 22313MM  26075.70031250  .00000000  00000+0  00000-0 0  9995
2 10015 100.0000  36.0000 0000000   0.0000 306.0000 14.06899812    17
CTC1_L_00157005-01
1 10016U 22312ZG  26075.70031250  .00000000  00000+0  00000-0 0  9995
2 10016 100.0000  48.0000 0000000   0.0000  48.0000 14.06899812    14
CTC1_L_00157005-02
1 10017U 22972U   26075.70031250  .00000000  00000+0  00000-0 0  9998
2 10017 100.0000  48.0000 0000000   0.0000 138.0000 14.06899812    15
CTC1_L_00157005-03
1 10018U 22565SR  26075.70031250  .00000000  00000+0  00000-0 0  9997
2 10018 100.0000  48.0000 0000000   0.0000 228.0000 14.06899812    16
CTC1_L_00157005-04
1 10019U 23731AI  26075.70031250  .00000000  00000+0  00000-0 0  9994
2 10019 100.0000  48.0000 0000000   0.0000 318.0000 14.06899812    17
CTC1_L_00157006-01
1 10020U 23012GA  26075.70031250  .00000000  00000+0  00000-0 0  9998
2 10020 100.0000  60.0000 0000000   0.0000  60.0000 14.06899812    17
CTC1_L_00157006-02
1 10021U 26307FV  26075.70031250  .00000000  00000+0  00000-0 0  9999
2 10021 100.0000  60.0000 0000000   0.0000 150.0000 14.06899812    18
CTC1_L_00157006-03
1 10022U 25445VV  26075.70031250  .00000000  00000+0  00000-0 0  9992
2 10022 100.0000  60.0000 0000000   0.0000 240.0000 14.06899812    19
CTC1_L_00157006-04
1 10023U 22492JK  26075.70031250  .00000000  00000+0  00000-0 0  9992
2 10023 100.0000  60.0000 0000000   0.0000 330.0000 14.06899812    10
CTC1_L_00157007-01
1 10024U 24434XZ  26075.70031250  .00000000  00000+0  00000-0 0  9991
2 10024 100.0000  72.0000 0000000   0.0000  72.0000 14.06899812    17
CTC1_L_00157007-02
1 10025U 23150RL  26075.70031250  .00000000  00000+0  00000-0 0  9996
2 10025 100.0000  72.0000 0000000   0.0000 162.0000 14.06899812    18
CTC1_L_00157007-03
1 10026U 26614QV  26075.70031250  .00000000  00000+0  00000-0 0  9995
2 10026 100.0000  72.0000 0000000   0.0000 252.0000 14.06899812    19
CTC1_L_00157007-04
1 10027U 24692XU  26075.70031250  .00000000  00000+0  00000-0 0  9990
2 10027 100.0000  72.0000 0000000   0.0000 342.0000 14.06899812    10
CTC1_L_00157008-01
1 10028U 25237YA  26075.70031250  .00000000  00000+0  00000-0 0  9997
2 10028 100.0000  84.0000 0000000   0.0000  84.0000 14.06899812    17
CTC1_L_00157008-02
1 10029U 26810TQ  26075.70031250  .00000000  00000+0  00000-0 0  9996
2 10029 100.0000  84.0000 0000000   0.0000 174.0000 14.06899812    18
CTC1_L_00157008-03
1 10030U 24432EN  26075.70031250  .00000000  00000+0  00000-0 0  9996
2 10030 100.0000  84.0000 0000000   0.0000 264.0000 14.06899812    10
CTC1_L_00157008-04
1 10031U 25677C   26075.70031250  .00000000  00000+0  00000-0 0  9999
2 10031 100.0000  84.0000 0000000   0.0000 354.0000 14.06899812    11
CTC1_L_00157009-01
1 10032U 22160K   26075.70031250  .00000000  00000+0  00000-0 0  9994
2 10032 100.0000  96.0000 0000000   0.0000  96.0000 14.06899812    18
CTC1_L_00157009-02
1 10033U 24787YB  26075.70031250  .00000000  00000+0  00000-0 0  9992
2 10033 100.0000  96.0000 0000000   0.0000 186.0000 14.06899812    19
CTC1_L_00157009-03
1 10034U 26688EA  26075.70031250  .00000000  00000+0  00000-0 0  9995
2 10034 100.0000  96.0000 0000000   0.0000 276.0000 14.06899812    10
CTC1_L_00157009-04
1 10035U 22437CB  26075.70031250  .00000000  00000+0  00000-0 0  9994
2 10035 100.0000  96.0000 0000000   0.0000   6.0000 14.06899812    12
CTC1_L_00157010-01
1 10036U 25918DK  26075.70031250  .00000000  00000+0  00000-0 0  9992
2 10036 100.0000 108.0000 0000000   0.0000 108.0000 14.06899812    10
CTC1_L_00157010-02
1 10037U 26651IA  26075.70031250  .00000000  00000+0  00000-0 0  9998
2 10037 100.0000 108.0000 0000000   0.0000 198.0000 14.06899812    10
CTC1_L_00157010-03
1 10038U 26895CO  26075.70031250  .00000000  00000+0  00000-0 0  9999
2 10038 100.0000 108.0000 0000000   0.0000 288.0000 14.06899812    11
CTC1_L_00157010-04
1 10039U 25728NG  26075.70031250  .00000000  00000+0  00000-0 0  9994
2 10039 100.0000 108.0000 0000000   0.0000  18.0000 14.06899812    13
CTC1_L_00157011-01
1 10040U 22764QL  26075.70031250  .00000000  00000+0  00000-0 0  9993
2 10040 100.0000 120.0000 0000000   0.0000 120.0000 14.06899812    13
CTC1_L_00157011-02
1 10041U 26806MR  26075.70031250  .00000000  00000+0  00000-0 0  9995
2 10041 100.0000 120.0000 0000000   0.0000 210.0000 14.06899812    14
CTC1_L_00157011-03
1 10042U 24837DW  26075.70031250  .00000000  00000+0  00000-0 0  9998
2 10042 100.0000 120.0000 0000000   0.0000 300.0000 14.06899812    15
CTC1_L_00157011-04
1 10043U 26264ZJ  26075.70031250  .00000000  00000+0  00000-0 0  9995
2 10043 100.0000 120.0000 0000000   0.0000  30.0000 14.06899812    16
CTC1_L_00157012-01
1 10044U 22339BV  26075.70031250  .00000000  00000+0  00000-0 0  9995
2 10044 100.0000 132.0000 0000000   0.0000 132.0000 14.06899812    13
CTC1_L_00157012-02
1 10045U 22911BV  26075.70031250  .00000000  00000+0  00000-0 0  9992
2 10045 100.0000 132.0000 0000000   0.0000 222.0000 14.06899812    14
CTC1_L_00157012-03
1 10046U 25185LK  26075.70031250  .00000000  00000+0  00000-0 0  9999
2 10046 100.0000 132.0000 0000000   0.0000 312.0000 14.06899812    15
CTC1_L_00157012-04
1 10047U 22404HI  26075.70031250  .00000000  00000+0  00000-0 0  9991
2 10047 100.0000 132.0000 0000000   0.0000  42.0000 14.06899812    16
CTC1_L_00157013-01
1 10048U 24628QG  26075.70031250  .00000000  00000+0  00000-0 0  9992
2 10048 100.0000 144.0000 0000000   0.0000 144.0000 14.06899812    13
CTC1_L_00157013-02
1 10049U 26552UX  26075.70031250  .00000000  00000+0  00000-0 0  9991
2 10049 100.0000 144.0000 0000000   0.0000 234.0000 14.06899812    14
CTC1_L_00157013-03
1 10050U 25755JG  26075.70031250  .00000000  00000+0  00000-0 0  9997
2 10050 100.0000 144.0000 0000000   0.0000 324.0000 14.06899812    16
CTC1_L_00157013-04
1 10051U 24244KY  26075.70031250  .00000000  00000+0  00000-0 0  9990
2 10051 100.0000 144.0000 0000000   0.0000  54.0000 14.06899812    17
CTC1_L_00157014-01
1 10052U 25194ZY  26075.70031250  .00000000  00000+0  00000-0 0  9996
2 10052 100.0000 156.0000 0000000   0.0000 156.0000 14.06899812    14
CTC1_L_00157014-02
1 10053U 25730GI  26075.70031250  .00000000  00000+0  00000-0 0  9993
2 10053 100.0000 156.0000 0000000   0.0000 246.0000 14.06899812    15
CTC1_L_00157014-03
1 10054U 25223GY  26075.70031250  .00000000  00000+0  00000-0 0  9991
2 10054 100.0000 156.0000 0000000   0.0000 336.0000 14.06899812    16
CTC1_L_00157014-04
1 10055U 25756SS  26075.70031250  .00000000  00000+0  00000-0 0  9993
2 10055 100.0000 156.0000 0000000   0.0000  66.0000 14.06899812    17
CTC1_L_00157015-01
1 10056U 22609YY  26075.70031250  .00000000  00000+0  00000-0 0  9998
2 10056 100.0000 168.0000 0000000   0.0000 168.0000 14.06899812    14
CTC1_L_00157015-02
1 10057U 26616IT  26075.70031250  .00000000  00000+0  00000-0 0  9991
2 10057 100.0000 168.0000 0000000   0.0000 258.0000 14.06899812    15
CTC1_L_00157015-03
1 10058U 23402YT  26075.70031250  .00000000  00000+0  00000-0 0  9992
2 10058 100.0000 168.0000 0000000   0.0000 348.0000 14.06899812    16
CTC1_L_00157015-04
1 10059U 24828DQ  26075.70031250  .00000000  00000+0  00000-0 0  9996
2 10059 100.0000 168.0000 0000000   0.0000  78.0000 14.06899812    17
CTC1_L_00157016-01
1 10060U 25111QI  26075.70031250  .00000000  00000+0  00000-0 0  9994
2 10060 100.0000 180.0000 0000000   0.0000 180.0000 14.06899812    17
CTC1_L_00157016-02
1 10061U 23124DZ  26075.70031250  .00000000  00000+0  00000-0 0  9997
2 10061 100.0000 180.0000 0000000   0.0000 270.0000 14.06899812    18
